NORAD_CAT_ID,OBJECT_NAME,OBJECT_TYPE,EPOCH,MEAN_MOTION,ECCENTRICITY,INCLINATION,RA_OF_ASC_NODE,ARG_OF_PERICENTER,MEAN_ANOMALY,BSTAR,MEAN_MOTION_DOT,MEAN_MOTION_DDOT,TLE_LINE0,TLE_LINE1,TLE_LINE2,SEMIMAJOR_AXIS,PERIOD,APOGEE,PERIGEE,DECAYED
52673.0,STARLINK-3976,PAYLOAD,2023-05-08 16:58:52,15.08840728,0.0001493,53.2157,124.8231,80.5662,279.5499,9.1476e-05,1.168e-05,0.0,0 STARLINK-3976,1 52673U 22053T   23128.70754649  .00001168  00000-0  91476-4 0  9990,2 52673  53.2157 124.8231 0001493  80.5662 279.5499 15.08840728 54640,6917.878,95.438,540.776,538.71,0.0
52673.0,STARLINK-3976,PAYLOAD,2023-05-09 05:41:56,15.08842218,0.0001459,53.2154,122.4439,81.0571,279.0586,0.00012471,1.697e-05,0.0,0 STARLINK-3976,1 52673U 22053T   23129.23746461  .00001697  00000-0  12471-3 0  9996,2 52673  53.2154 122.4439 0001459  81.0571 279.0586 15.08842218 54297,6917.874,95.437,540.748,538.729,0.0
52673.0,STARLINK-3976,PAYLOAD,2023-05-09 07:17:19,15.08844542,0.0001484,53.2156,122.1466,80.6526,279.4634,0.00011881,1.604e-05,0.0,0 STARLINK-3976,1 52673U 22053T   23129.30370339  .00001604  00000-0  11881-3 0  9993,2 52673  53.2156 122.1466 0001484  80.6526 279.4634 15.08844542 54738,6917.867,95.437,540.758,538.705,0.0
52673.0,STARLINK-3976,PAYLOAD,2023-05-10 05:32:44,15.08842896,0.0001483,53.2157,117.984,83.1609,276.9551,7.3791e-05,8.87e-06,0.0,0 STARLINK-3976,1 52673U 22053T   23130.23106570  .00000887  00000-0  73791-4 0  9992,2 52673  53.2157 117.9840 0001483  83.1609 276.9551 15.08842896 54871,6917.872,95.437,540.762,538.711,0.0
52673.0,STARLINK-3976,PAYLOAD,2023-05-10 16:40:26,15.08842315,0.000152,53.216,115.9,89.8699,270.2467,3.9876e-05,3.47e-06,0.0,0 STARLINK-3976,1 52673U 22053T   23130.69474575  .00000347  00000-0  39876-4 0  9992,2 52673  53.2160 115.9000 0001520  89.8699 270.2467 15.08842315 54942,6917.873,95.437,540.79,538.687,0.0
52673.0,STARLINK-3976,PAYLOAD,2023-05-11 05:23:30,15.08843083,0.0001491,53.2161,113.5205,92.1565,267.9598,9.0895e-05,1.159e-05,0.0,0 STARLINK-3976,1 52673U 22053T   23131.22466306  .00001159  00000-0  90895-4 0  9995,2 52673  53.2161 113.5205 0001491  92.1565 267.9598 15.08843083 54592,6917.871,95.437,540.767,538.705,0.0
52673.0,STARLINK-3976,PAYLOAD,2023-05-12 05:14:19,15.08829893,0.0001314,53.2157,109.0642,84.2507,275.8634,6.4203e-06,-1.86e-06,0.0,0 STARLINK-3976,1 52673U 22053T   23132.21827581 -.00000186  00000-0  64203-5 0  9996,2 52673  53.2157 109.0642 0001314  84.2507 275.8634 15.08829893 54743,6917.911,95.438,540.685,538.867,0.0
52673.0,STARLINK-3976,PAYLOAD,2023-05-13 05:05:05,15.08848239,0.0001364,53.2162,104.6019,86.3942,273.7206,8.4933e-05,1.064e-05,0.0,0 STARLINK-3976,1 52673U 22053T   23133.21186371  .00001064  00000-0  84933-4 0  9998,2 52673  53.2162 104.6019 0001364  86.3942 273.7206 15.08848239 54892,6917.855,95.437,540.664,538.777,0.0
52673.0,STARLINK-3976,PAYLOAD,2023-05-14 04:55:53,15.08831187,0.000139,53.217,100.1427,90.1253,269.9899,5.1732e-05,5.35e-06,0.0,0 STARLINK-3976,1 52673U 22053T   23134.20548001  .00000535  00000-0  51732-4 0  9993,2 52673  53.2170 100.1427 0001390  90.1253 269.9899 15.08831187 55049,6917.907,95.438,540.734,538.811,0.0
52673.0,STARLINK-3976,PAYLOAD,2023-05-15 03:11:16,15.08846554,0.0001422,53.2174,95.9785,102.9718,257.1433,3.2435e-05,2.28e-06,0.0,0 STARLINK-3976,1 52673U 22053T   23135.13283107  .00000228  00000-0  32435-4 0  9997,2 52673  53.2174  95.9785 0001422 102.9718 257.1433 15.08846554 55187,6917.86,95.437,540.709,538.742,0.0
52673.0,STARLINK-3976,PAYLOAD,2023-05-15 04:46:39,15.08850114,0.000125,53.2168,95.68,87.8755,272.2381,4.4062e-05,4.14e-06,0.0,0 STARLINK-3976,1 52673U 22053T   23135.19906887  .00000414  00000-0  44062-4 0  9996,2 52673  53.2168  95.6800 0001250  87.8755 272.2381 15.08850114 55622,6917.849,95.437,540.579,538.85,0.0
52673.0,STARLINK-3976,PAYLOAD,2023-05-15 14:18:58,15.08849407,0.0001222,53.2167,93.8952,78.8473,281.2656,3.2579e-05,2.31e-06,0.0,0 STARLINK-3976,1 52673U 22053T   23135.59650804  .00000231  00000-0  32579-4 0  9992,2 52673  53.2167  93.8952 0001222  78.8473 281.2656 15.08849407 55689,6917.852,95.437,540.562,538.871,0.0
52673.0,STARLINK-3976,PAYLOAD,2023-05-16 03:02:04,15.08831368,0.0001399,53.2182,91.5187,86.1908,273.9244,3.7317e-05,3.06e-06,0.0,0 STARLINK-3976,1 52673U 22053T   23136.12644258  .00000306  00000-0  37317-4 0  9996,2 52673  53.2182  91.5187 0001399  86.1908 273.9244 15.08831368 55331,6917.907,95.438,540.74,538.804,0.0
52673.0,STARLINK-3976,PAYLOAD,2023-05-16 06:12:50,15.08836049,0.0001371,53.2181,90.921,76.9577,283.1568,2.1971e-05,6.2e-07,0.0,0 STARLINK-3976,1 52673U 22053T   23136.25891982  .00000062  00000-0  21971-4 0  9996,2 52673  53.2181  90.9210 0001371  76.9577 283.1568 15.08836049 55781,6917.892,95.438,540.706,538.809,0.0
52673.0,STARLINK-3976,PAYLOAD,2023-05-17 02:52:50,15.08846479,0.0001064,53.2164,87.058,97.6091,262.5022,-1.7163e-05,-5.61e-06,0.0,0 STARLINK-3976,1 52673U 22053T   23137.12003317 -.00000561  00000-0 -17163-4 0  9994,2 52673  53.2164  87.0580 0001064  97.6091 262.5022 15.08846479 55480,6917.861,95.437,540.462,538.99,0.0
52673.0,STARLINK-3976,PAYLOAD,2023-05-17 04:28:13,15.08848113,0.0001129,53.2169,86.7605,103.5047,256.6071,-6.8181e-08,-2.89e-06,0.0,0 STARLINK-3976,1 52673U 22053T   23137.18627126 -.00000289  00000-0 -68181-7 0  9996,2 52673  53.2169  86.7605 0001129 103.5047 256.6071 15.08848113 55923,6917.856,95.437,540.502,538.94,0.0
52673.0,STARLINK-3976,PAYLOAD,2023-05-18 02:43:38,15.08819842,0.0001122,53.2172,82.5967,87.7455,272.3666,0.00022305,3.262e-05,0.0,0 STARLINK-3976,1 52673U 22053T   23138.11364547  .00003262  00000-0  22305-3 0  9991,2 52673  53.2172  82.5967 0001122  87.7455 272.3666 15.08819842 55631,6917.942,95.439,540.583,539.031,0.0
52673.0,STARLINK-3976,PAYLOAD,2023-05-18 05:54:24,15.08837412,0.0001291,53.2184,82.0,93.4631,266.6509,4.3836e-05,4.1e-06,0.0,0 STARLINK-3976,1 52673U 22053T   23138.24611761  .00000410  00000-0  43836-4 0  9993,2 52673  53.2184  82.0000 0001291  93.4631 266.6509 15.08837412 55651,6917.888,95.438,540.646,538.86,0.0
52673.0,STARLINK-3976,PAYLOAD,2023-05-19 02:34:24,15.08848911,0.0001317,53.2183,78.1345,89.6014,270.5129,-1.5284e-05,-5.31e-06,0.0,0 STARLINK-3976,1 52673U 22053T   23139.10723300 -.00000531  00000-0 -15284-4 0  9994,2 52673  53.2183  78.1345 0001317  89.6014 270.5129 15.08848911 55781,6917.853,95.437,540.629,538.807,0.0
52673.0,STARLINK-3976,PAYLOAD,2023-05-19 05:45:10,15.08855718,0.0001348,53.2181,77.5395,87.8884,272.2262,-6.4772e-05,-1.319e-05,0.0,0 STARLINK-3976,1 52673U 22053T   23139.23970998 -.00001319  00000-0 -64772-4 0  9996,2 52673  53.2181  77.5395 0001348  87.8884 272.2262 15.08855718 56237,6917.832,95.437,540.63,538.765,0.0
52673.0,STARLINK-3976,PAYLOAD,2023-05-20 02:25:11,15.08843694,0.0001156,53.2174,73.6745,86.7167,273.3957,6.8225e-05,7.98e-06,0.0,0 STARLINK-3976,1 52673U 22053T   23140.10083309  .00000798  00000-0  68225-4 0  9990,2 52673  53.2174  73.6745 0001156  86.7167 273.3957 15.08843694 55933,6917.869,95.437,540.534,538.934,0.0
52673.0,STARLINK-3976,PAYLOAD,2023-05-20 05:35:58,15.08845859,0.0001156,53.2174,73.0791,86.7712,273.3412,9.3414e-05,1.199e-05,0.0,0 STARLINK-3976,1 52673U 22053T   23140.23331138  .00001199  00000-0  93414-4 0  9994,2 52673  53.2174  73.0791 0001156  86.7712 273.3412 15.08845859 56385,6917.862,95.437,540.527,538.928,0.0
52673.0,STARLINK-3976,PAYLOAD,2023-05-21 02:15:58,15.08856894,0.0001086,53.2168,69.2173,97.0876,263.024,4.9465e-05,5e-06,0.0,0 STARLINK-3976,1 52673U 22053T   23141.09442158  .00000500  00000-0  49465-4 0  9996,2 52673  53.2168  69.2173 0001086  97.0876 263.0240 15.08856894 56080,6917.829,95.436,540.445,538.942,0.0
52673.0,STARLINK-3976,PAYLOAD,2023-05-22 02:06:47,15.08825888,0.0001118,53.2173,64.7532,82.4009,277.711,-0.00012731,-2.313e-05,0.0,0 STARLINK-3976,1 52673U 22053T   23142.08805306 -.00002313  00000-0 -12731-3 0  9995,2 52673  53.2173  64.7532 0001118  82.4009 277.7110 15.08825888 56231,6917.924,95.438,540.562,539.015,0.0
52673.0,STARLINK-3976,PAYLOAD,2023-05-22 11:39:06,15.08828701,0.0001036,53.2167,62.9701,85.5263,274.5847,-9.4319e-05,-1.788e-05,0.0,0 STARLINK-3976,1 52673U 22053T   23142.48549372 -.00001788  00000-0 -94319-4 0  9995,2 52673  53.2167  62.9701 0001036  85.5263 274.5847 15.08828701 56720,6917.915,95.438,540.497,539.063,0.0
52673.0,STARLINK-3976,PAYLOAD,2023-05-22 21:11:24,15.08842549,9.93e-05,53.2174,61.1864,91.3955,268.7151,-4.6678e-05,-1.031e-05,0.0,0 STARLINK-3976,1 52673U 22053T   23142.88292679 -.00001031  00000-0 -46678-4 0  9990,2 52673  53.2174  61.1864 0000993  91.3955 268.7151 15.08842549 56788,6917.873,95.437,540.425,539.051,0.0
52673.0,STARLINK-3976,PAYLOAD,2023-05-23 01:57:33,15.08846635,9.95e-05,53.2173,60.2943,90.3773,269.7333,3.4062e-06,-2.34e-06,0.0,0 STARLINK-3976,1 52673U 22053T   23143.08164312 -.00000234  00000-0  34062-5 0  9993,2 52673  53.2173  60.2943 0000995  90.3773 269.7333 15.08846635 56383,6917.86,95.437,540.413,539.037,0.0
52673.0,STARLINK-3976,PAYLOAD,2023-05-24 00:12:58,15.08845791,0.0001049,53.2168,56.1316,81.7836,278.3275,0.00042887,6.545e-05,0.0,0 STARLINK-3976,1 52673U 22053T   23144.00900697  .00006545  00000-0  42887-3 0  9992,2 52673  53.2168  56.1316 0001049  81.7836 278.3275 15.08845791 56529,6917.863,95.437,540.453,539.002,0.0
52673.0,STARLINK-3976,PAYLOAD,2023-05-24 01:48:21,15.08851442,0.000107,53.2168,55.8344,83.1887,276.9227,0.00052188,8.03e-05,0.0,0 STARLINK-3976,1 52673U 22053T   23144.07524526  .00008030  00000-0  52188-3 0  9998,2 52673  53.2168  55.8344 0001070  83.1887 276.9227 15.08851442 56961,6917.845,95.437,540.451,538.97,0.0
52673.0,STARLINK-3976,PAYLOAD,2023-05-25 22:19:10,15.08841613,0.0001479,53.2184,47.5103,32.0716,328.0366,0.0005147,7.913e-05,0.0,0 STARLINK-3976,1 52673U 22053T   23145.92998195  .00007913  00000-0  51470-3 0  9992,2 52673  53.2184  47.5103 0001479  32.0716 328.0366 15.08841613 57241,6917.875,95.437,540.764,538.717,0.0
